KUIPER-00027            
1 63740U 25088S   25334.85666257  .00001459  00000+0  22091-3 0  9990
2 63740  51.8997 172.5367 0004869 180.9960 179.0993 14.79829742 32985
KUIPER-00028            
1 63741U 25088T   25334.80929537  .00001582  00000+0  23842-3 0  9991
2 63741  51.8984 170.7528 0004031 200.3821 159.6980 14.79591508 33410
KUIPER-00029            
1 63742U 25088U   25334.83864597 -.00030175  00000+0 -39389-2 0  9993
2 63742  51.9017 168.4322 0009822 152.9112 207.2365 14.79978196 32972
KUIPER-00030            
1 63743U 25088V   25334.78045808 -.00000115  00000+0  14536-4 0  9993
2 63743  51.8982 187.9144 0016382  99.9634 260.3179 14.79924271 32988
KUIPER-00031            
1 63744U 25088W   25334.86240699  .00000795  00000+0  13331-3 0  9992
2 63744  51.8994 173.6223 0005514 138.7993 221.3386 14.79967709 32909
KUIPER-00032            
1 63745U 25088X   25334.84056815  .00014242  00000+0  44947-3 0  9995
2 63745  51.8710 140.5374 0005248 139.7060 220.4315 15.33090607 34365
KUIPER-00033            
1 63746U 25088Y   25334.35746168  .00006941  00000+0  93800-3 0  9998
2 63746  51.8991 205.8423 0003836 184.4688 175.6241 14.79959767 32896
KUIPER-00034            
1 63747U 25088Z   25334.83336806  .00012196  00000+0  16279-2 0  9999
2 63747  51.8993 166.2534 0002840 128.6569  32.6704 14.79878101  5634
